ONEWEB-0027             
1 45432U 20020J   23267.87117634 -.00000318  00000+0 -85280-3 0  9998
2 45432  87.9162 203.8535 0001724  67.5852 292.5462 13.17649449175153
ONEWEB-0064             
1 45433U 20020K   23268.13084807 -.00000614  00000+0 -17674-2 0  9994
2 45433  87.8959 218.9293 0001906  69.2461 290.8871 13.11417276172148
ONEWEB-0018             
1 45434U 20020L   23267.93374108  .00000494  00000+0  13590-2 0  9995
2 45434  87.8967 218.9566 0002107  81.3365 278.8001 13.11417773172056
ONEWEB-0083             
1 45435U 20020M   23267.92315423  .00000339  00000+0  91990-3 0  9999
2 45435  87.8956 218.9458 0001856  77.5709 282.5626 13.11419093172090
ONEWEB-0095             
1 45436U 20020N   23267.91589003 -.00036262  00000+0 -10242+0 0  9999
2 45436  87.8964 218.9816 0001511  85.8022 274.3279 13.11639702172090
ONEWEB-0092             
1 45437U 20020P   23268.10965024 -.00000093  00000+0 -29942-3 0  9997
2 45437  87.8959 218.9212 0001660  79.8886 280.2429 13.11414515172233
ONEWEB-0085             
1 45438U 20020Q   23267.91678683  .00000187  00000+0  49263-3 0  9998
2 45438  87.8957 218.9691 0002143  74.5055 285.6310 13.11419297172106
ONEWEB-0096             
1 45439U 20020R   23267.92528368  .00000374  00000+0  10197-2 0  9995
2 45439  87.8956 218.9421 0002236  80.9895 279.1486 13.11418772172089
